start=new Date('2022-12-29T00:00:00.000Z').valueOf();
sats=[{"TLE_LINE1":"1 48293U 21036T   22361.98877444  .00007384  00000-0  51433-3 0  9994","PERIAPSIS":"546.346","EPOCH":"2022-12-27T23:43:50.111616","GP_ID":"221693737","COUNTRY_CODE":"US","SITE":"AFETR","EPHEMERIS_TYPE":"0","CENTER_NAME":"EARTH","MEAN_ANOMALY":"291.8927","APOAPSIS":"548.179","BSTAR":"0.00051433000000","CLASSIFICATION_TYPE":"U","ARG_OF_PERICENTER":"68.2203","RA_OF_ASC_NODE":"283.6422","MEAN_MOTION_DOT":"0.00007384","TIME_SYSTEM":"UTC","TLE_LINE2":"2 48293  53.0560 283.6422 0001324  68.2203 291.8927 15.06384024 92311","OBJECT_ID":"2021-036T","ELEMENT_SET_NO":"999","ECCENTRICITY":"0.00013240","LAUNCH_DATE":"2021-04-29","SEMIMAJOR_AXIS":"6925.398","FILE":"3725038","REF_FRAME":"TEME","MEAN_MOTION":"15.06384024","MEAN_ELEMENT_THEORY":"SGP4","DECAY_DATE":null,"REV_AT_EPOCH":"9231","MEAN_MOTION_DDOT":"0.0000000000000","INCLINATION":"53.0560","RCS_SIZE":"LARGE","OBJECT_NAME":"STARLINK-2550","OBJECT_TYPE":"PAYLOAD","PERIOD":"95.593","NORAD_CAT_ID":"48293"},{"RA_OF_ASC_NODE":"283.3567","ARG_OF_PERICENTER":"76.4056","CLASSIFICATION_TYPE":"U","BSTAR":"0.00044335000000","TLE_LINE2":"2 48294  53.0550 283.3567 0001598  76.4056 283.7111 15.06415152 92321","TIME_SYSTEM":"UTC","MEAN_MOTION_DOT":"0.00006331","GP_ID":"221693486","PERIAPSIS":"546.060","EPOCH":"2022-12-28T01:14:04.073856","TLE_LINE1":"1 48294U 21036U   22362.05143604  .00006331  00000-0  44335-3 0  9992","APOAPSIS":"548.274","MEAN_ANOMALY":"283.7111","CENTER_NAME":"EARTH","EPHEMERIS_TYPE":"0","SITE":"AFETR","COUNTRY_CODE":"US","OBJECT_TYPE":"PAYLOAD","OBJECT_NAME":"STARLINK-2533","RCS_SIZE":"LARGE","NORAD_CAT_ID":"48294","PERIOD":"95.591","REF_FRAME":"TEME","FILE":"3725038","SEMIMAJOR_AXIS":"6925.302","LAUNCH_DATE":"2021-04-29","ECCENTRICITY":"0.00015980","ELEMENT_SET_NO":"999","OBJECT_ID":"2021-036U","INCLINATION":"53.0550","MEAN_MOTION_DDOT":"0.0000000000000","REV_AT_EPOCH":"9232","MEAN_ELEMENT_THEORY":"SGP4","DECAY_DATE":null,"MEAN_MOTION":"15.06415152"},{"OBJECT_TYPE":"PAYLOAD","OBJECT_NAME":"STARLINK-2535","RCS_SIZE":"LARGE","NORAD_CAT_ID":"48295","PERIOD":"95.591","FILE":"3725038","REF_FRAME":"TEME","ECCENTRICITY":"0.00014560","SEMIMAJOR_AXIS":"6925.303","LAUNCH_DATE":"2021-04-29","ELEMENT_SET_NO":"999","OBJECT_ID":"2021-036V","INCLINATION":"53.0519","MEAN_MOTION_DDOT":"0.0000000000000","DECAY_DATE":null,"MEAN_ELEMENT_THEORY":"SGP4","REV_AT_EPOCH":"9232","MEAN_MOTION":"15.06414889","RA_OF_ASC_NODE":"283.3765","ARG_OF_PERICENTER":"96.2679","CLASSIFICATION_TYPE":"U","BSTAR":"0.00019220000000","TIME_SYSTEM":"UTC","TLE_LINE2":"2 48295  53.0519 283.3765 0001456  96.2679 263.8476 15.06414889 92320","MEAN_MOTION_DOT":"0.00002584","GP_ID":"221694737","PERIAPSIS":"546.160","EPOCH":"2022-12-28T01:08:44.304864","TLE_LINE1":"1 48295U 21036V   22362.04773501  .00002584  00000-0  19220-3 0  9998","MEAN_ANOMALY":"263.8476","APOAPSIS":"548.176","CENTER_NAME":"EARTH","SITE":"AFETR","COUNTRY_CODE":"US","EPHEMERIS_TYPE":"0"},{"ECCENTRICITY":"0.00016020","SEMIMAJOR_AXIS":"6925.312","LAUNCH_DATE":"2021-04-29","FILE":"3724884","REF_FRAME":"TEME","OBJECT_ID":"2021-036W","ELEMENT_SET_NO":"999","MEAN_MOTION_DDOT":"0.0000000000000","INCLINATION":"53.0538","MEAN_MOTION":"15.06411829","MEAN_ELEMENT_THEORY":"SGP4","DECAY_DATE":null,"REV_AT_EPOCH":"9290","OBJECT_NAME":"STARLINK-2546","OBJECT_TYPE":"PAYLOAD","RCS_SIZE":"LARGE","NORAD_CAT_ID":"48296","PERIOD":"95.591","GP_ID":"221669033","TLE_LINE1":"1 48296U 21036W   22362.04406011  .00005930  00000-0  41655-3 0  9993","PERIAPSIS":"546.068","EPOCH":"2022-12-28T01:03:26.793504","MEAN_ANOMALY":"267.1881","APOAPSIS":"548.287","SITE":"AFETR","COUNTRY_CODE":"US","EPHEMERIS_TYPE":"0","CENTER_NAME":"EARTH","RA_OF_ASC_NODE":"283.3891","BSTAR":"0.00041655000000","CLASSIFICATION_TYPE":"U","ARG_OF_PERICENTER":"92.9291","TIME_SYSTEM":"UTC","TLE_LINE2":"2 48296  53.0538 283.3891 0001602  92.9291 267.1881 15.06411829 92900","MEAN_MOTION_DOT":"0.00005930"},{"GP_ID":"221693238","TLE_LINE1":"1 48297U 21036X   22362.83655776 -.00001072  00000-0 -53097-4 0  9994","PERIAPSIS":"545.863","EPOCH":"2022-12-28T20:04:38.590464","APOAPSIS":"548.635","MEAN_ANOMALY":"305.6575","EPHEMERIS_TYPE":"0","COUNTRY_CODE":"US","SITE":"AFETR","CENTER_NAME":"EARTH","RA_OF_ASC_NODE":"279.8303","CLASSIFICATION_TYPE":"U","BSTAR":"-0.00005309700000","ARG_OF_PERICENTER":"54.4600","TLE_LINE2":"2 48297  53.0567 279.8303 0002001  54.4600 305.6575 15.06388484 92449","TIME_SYSTEM":"UTC","MEAN_MOTION_DOT":"-0.00001072","SEMIMAJOR_AXIS":"6925.384","LAUNCH_DATE":"2021-04-29","ECCENTRICITY":"0.00020010","REF_FRAME":"TEME","FILE":"3725038","OBJECT_ID":"2021-036X","ELEMENT_SET_NO":"999","MEAN_MOTION_DDOT":"0.0000000000000","INCLINATION":"53.0567","MEAN_MOTION":"15.06388484","REV_AT_EPOCH":"9244","DECAY_DATE":null,"MEAN_ELEMENT_THEORY":"SGP4","OBJECT_NAME":"STARLINK-2544","OBJECT_TYPE":"PAYLOAD","RCS_SIZE":"LARGE","NORAD_CAT_ID":"48297","PERIOD":"95.593"},{"RCS_SIZE":"LARGE","OBJECT_TYPE":"PAYLOAD","OBJECT_NAME":"STARLINK-2559","PERIOD":"95.591","NORAD_CAT_ID":"48298","ELEMENT_SET_NO":"999","OBJECT_ID":"2021-036Y","FILE":"3724805","REF_FRAME":"TEME","ECCENTRICITY":"0.00020390","SEMIMAJOR_AXIS":"6925.280","LAUNCH_DATE":"2021-04-29","MEAN_ELEMENT_THEORY":"SGP4","DECAY_DATE":null,"REV_AT_EPOCH":"9233","MEAN_MOTION":"15.06422360","INCLINATION":"53.0537","MEAN_MOTION_DDOT":"0.0000000000000","ARG_OF_PERICENTER":"53.0928","CLASSIFICATION_TYPE":"U","BSTAR":"0.00039297000000","RA_OF_ASC_NODE":"283.1345","MEAN_MOTION_DOT":"0.00005580","TIME_SYSTEM":"UTC","TLE_LINE2":"2 48298  53.0537 283.1345 0002039  53.0928 307.0248 15.06422360 92333","EPOCH":"2022-12-28T02:28:21.764352","PERIAPSIS":"545.733","TLE_LINE1":"1 48298U 21036Y   22362.10302968  .00005580  00000-0  39297-3 0  9998","GP_ID":"221663310","CENTER_NAME":"EARTH","COUNTRY_CODE":"US","SITE":"AFETR","EPHEMERIS_TYPE":"0","MEAN_ANOMALY":"307.0248","APOAPSIS":"548.557"},{"RA_OF_ASC_NODE":"283.4301","CLASSIFICATION_TYPE":"U","BSTAR":"0.00101330000000","ARG_OF_PERICENTER":"67.3713","TLE_LINE2":"2 48299  53.0548 283.4301 0001670  67.3713 292.7453 15.06439517 92320","TIME_SYSTEM":"UTC","MEAN_MOTION_DOT":"0.00014860","GP_ID":"221694238","TLE_LINE1":"1 48299U 21036Z   22362.03300576  .00014860  00000-0  10133-2 0  9992","EPOCH":"2022-12-28T00:47:31.697664","PERIAPSIS":"545.936","APOAPSIS":"548.249","MEAN_ANOMALY":"292.7453","EPHEMERIS_TYPE":"0","COUNTRY_CODE":"US","SITE":"AFETR","CENTER_NAME":"EARTH","OBJECT_NAME":"STARLINK-2557","OBJECT_TYPE":"PAYLOAD","RCS_SIZE":"LARGE","NORAD_CAT_ID":"48299","PERIOD":"95.590","LAUNCH_DATE":"2021-04-29","SEMIMAJOR_AXIS":"6925.227","ECCENTRICITY":"0.00016700","REF_FRAME":"TEME","FILE":"3725038","OBJECT_ID":"2021-036Z","ELEMENT_SET_NO":"999","INCLINATION":"53.0548","MEAN_MOTION_DDOT":"0.0000000000000","MEAN_MOTION":"15.06439517","REV_AT_EPOCH":"9232","DECAY_DATE":null,"MEAN_ELEMENT_THEORY":"SGP4"},{"MEAN_MOTION":"15.06412090","DECAY_DATE":null,"MEAN_ELEMENT_THEORY":"SGP4","REV_AT_EPOCH":"9221","MEAN_MOTION_DDOT":"0.0000000000000","INCLINATION":"53.0552","OBJECT_ID":"2021-036AA","ELEMENT_SET_NO":"999","ECCENTRICITY":"0.00018280","SEMIMAJOR_AXIS":"6925.312","LAUNCH_DATE":"2021-04-29","FILE":"3724805","REF_FRAME":"TEME","PERIOD":"95.591","NORAD_CAT_ID":"48300","RCS_SIZE":"LARGE","OBJECT_NAME":"STARLINK-2538","OBJECT_TYPE":"PAYLOAD","SITE":"AFETR","COUNTRY_CODE":"US","EPHEMERIS_TYPE":"0","CENTER_NAME":"EARTH","MEAN_ANOMALY":"309.0952","APOAPSIS":"548.442","TLE_LINE1":"1 48300U 21036AA  22362.22374658  .00003349  00000-0  24358-3 0  9993","PERIAPSIS":"545.911","EPOCH":"2022-12-28T05:22:11.704512","GP_ID":"221661814","MEAN_MOTION_DOT":"0.00003349","TIME_SYSTEM":"UTC","TLE_LINE2":"2 48300  53.0552 292.5710 0001828  51.0200 309.0952 15.06412090 92210","BSTAR":"0.00024358000000","CLASSIFICATION_TYPE":"U","ARG_OF_PERICENTER":"51.0200","RA_OF_ASC_NODE":"292.5710"},{"RCS_SIZE":"LARGE","OBJECT_TYPE":"PAYLOAD","OBJECT_NAME":"STARLINK-2537","PERIOD":"95.591","NORAD_CAT_ID":"48301","ELEMENT_SET_NO":"999","OBJECT_ID":"2021-036AB","FILE":"3724805","REF_FRAME":"TEME","ECCENTRICITY":"0.00012590","SEMIMAJOR_AXIS":"6925.316","LAUNCH_DATE":"2021-04-29","MEAN_ELEMENT_THEORY":"SGP4","DECAY_DATE":null,"REV_AT_EPOCH":"9220","MEAN_MOTION":"15.06410759","INCLINATION":"53.0535","MEAN_MOTION_DDOT":"0.0000000000000","ARG_OF_PERICENTER":"82.6141","CLASSIFICATION_TYPE":"U","BSTAR":"0.00009752600000","RA_OF_ASC_NODE":"292.6022","MEAN_MOTION_DOT":"0.00001172","TIME_SYSTEM":"UTC","TLE_LINE2":"2 48301  53.0535 292.6022 0001259  82.6141 277.4991 15.06410759 92201","PERIAPSIS":"546.309","EPOCH":"2022-12-28T05:16:52.753728","TLE_LINE1":"1 48301U 21036AB  22362.22005502  .00001172  00000-0  97526-4 0  9993","GP_ID":"221663066","CENTER_NAME":"EARTH","COUNTRY_CODE":"US","SITE":"AFETR","EPHEMERIS_TYPE":"0","MEAN_ANOMALY":"277.4991","APOAPSIS":"548.052"},{"MEAN_MOTION":"15.06419902","DECAY_DATE":null,"MEAN_ELEMENT_THEORY":"SGP4","REV_AT_EPOCH":"9220","MEAN_MOTION_DDOT":"0.0000000000000","INCLINATION":"53.0548","OBJECT_ID":"2021-036AC","ELEMENT_SET_NO":"999","ECCENTRICITY":"0.00013780","LAUNCH_DATE":"2021-04-29","SEMIMAJOR_AXIS":"6925.288","FILE":"3724805","REF_FRAME":"TEME","PERIOD":"95.591","NORAD_CAT_ID":"48302","RCS_SIZE":"LARGE","OBJECT_NAME":"STARLINK-2556","OBJECT_TYPE":"PAYLOAD","SITE":"AFETR","COUNTRY_CODE":"US","EPHEMERIS_TYPE":"0","CENTER_NAME":"EARTH","MEAN_ANOMALY":"266.7519","APOAPSIS":"548.107","TLE_LINE1":"1 48302U 21036AC  22362.21637572  .00005591  00000-0  39375-3 0  9997","PERIAPSIS":"546.198","EPOCH":"2022-12-28T05:11:34.862208","GP_ID":"221662810","MEAN_MOTION_DOT":"0.00005591","TIME_SYSTEM":"UTC","TLE_LINE2":"2 48302  53.0548 292.6088 0001378  93.3627 266.7519 15.06419902 92204","CLASSIFICATION_TYPE":"U","BSTAR":"0.00039375000000","ARG_OF_PERICENTER":"93.3627","RA_OF_ASC_NODE":"292.6088"}];
